<?xml version="1.0" encoding="UTF-8"?>
<kml xmlns="http://www.opengis.net/kml/2.2"
     xmlns:gx="http://www.google.com/kml/ext/2.2"
     xmlns:kml="http://www.opengis.net/kml/2.2">
<Document id="document">
	<name>T1286300-T1054156-cell-rank1</name>
	<description>Generated by Trailblazer 2026-06-05T18:26:55Z | T1286300 → T1054156 | cell | ≥MVFR</description>

	<Style id="route1Style_normal">
		<LineStyle>
			<color>ffFF8C1E</color>
			<width>4</width>
		</LineStyle>
		<PolyStyle><color>40ffffff</color></PolyStyle>
	</Style>
	<Style id="route1Style_highlight">
		<LineStyle>
			<color>ffFF8C1E</color>
			<width>5</width>
		</LineStyle>
	</Style>
	<StyleMap id="route1Style">
		<Pair><key>normal</key><styleUrl>#route1Style_normal</styleUrl></Pair>
		<Pair><key>highlight</key><styleUrl>#route1Style_highlight</styleUrl></Pair>
	</StyleMap>
	<Placemark>
		<name>T1286300→T1054156 #1 (320nm 2h39m)</name>
		<description>Graph: cell | Depart: 2026-06-05T18:26:47Z | Cruise: 120kts | Worst wx: VFR | Cost: 163.2</description>
		<styleUrl>#route1Style</styleUrl>
		<LineString>
			<tessellate>1</tessellate>
			<coordinates>
				-76.13594444,36.84133333,0 -75.95388889,37.13305556,0 -76.01227778,37.26255556,0 -76.30575000,37.44336111,0 -76.44241667,37.49366667,0 -76.56452778,37.50213889,0 -76.62947222,37.51427778,0 -76.85027778,37.58363889,0 -76.94427778,37.65625000,0 -77.08222222,37.72244444,0 -77.12905556,37.74011111,0 -77.25388889,37.74222222,0 -77.37072222,37.81444444,0 -77.43508333,37.85833333,0 -77.54063889,37.86091667,0 -77.64302778,37.93147222,0 -77.86013889,37.92213889,0 -77.91619444,37.93386111,0 -78.11150000,37.94980556,0 -78.25752778,37.92016667,0 -78.34186111,37.91258333,0 -78.48111111,37.98402778,0 -78.60694444,37.97083333,0 -78.73877778,37.93000000,0 -78.88394444,37.91063889,0 -79.00069444,38.04500000,0 -79.07044444,38.10975000,0 -79.22644444,38.18258333,0 -79.31380556,38.16527778,0 -79.41055556,38.18619444,0 -79.70541667,38.16436111,0 -79.81472222,38.22333333,0 -80.12683333,38.19336111,0 -80.26441667,38.10502778,0 -80.54130556,38.23522222,0 -80.61663889,38.22655556,0 -80.86900000,38.28036111,0 -81.11477778,38.35216667,0 -81.18050000,38.31369444,0 -81.37555556,38.28988889,0 -81.54083333,38.31861111,0
			</coordinates>
		</LineString>
	</Placemark>
</Document>
</kml>
