<?xml version="1.0" encoding="UTF-8"?>
<kml xmlns="http://www.opengis.net/kml/2.2" xmlns:gx="http://www.google.com/kml/ext/2.2" xmlns:kml="http://www.opengis.net/kml/2.2" xmlns:atom="http://www.w3.org/2005/Atom">
<Document id="document">
	<name>Mid-Atlantic Littoral AO</name>
	<gx:CascadingStyle kml:id="__managed_style_04E5B8C2233F13B56D39_highlight">
		<Style>
			<IconStyle>
				<scale>1.2</scale>
				<Icon>
					<href>https://earth.google.com/earth/document/icon?color=1976d2&amp;id=2000&amp;scale=4</href>
				</Icon>
				<hotSpot x="64" y="128" xunits="pixels" yunits="insetPixels"/>
			</IconStyle>
			<LabelStyle>
			</LabelStyle>
			<LineStyle>
				<color>ff2dc0fb</color>
				<width>6</width>
			</LineStyle>
			<PolyStyle>
				<color>40ffffff</color>
			</PolyStyle>
			<BalloonStyle>
				<displayMode>hide</displayMode>
			</BalloonStyle>
		</Style>
	</gx:CascadingStyle>
	<gx:CascadingStyle kml:id="__managed_style_04E5B8C2233F13B56D39_normal">
		<Style>
			<IconStyle>
				<Icon>
					<href>https://earth.google.com/earth/document/icon?color=1976d2&amp;id=2000&amp;scale=4</href>
				</Icon>
				<hotSpot x="64" y="128" xunits="pixels" yunits="insetPixels"/>
			</IconStyle>
			<LabelStyle>
			</LabelStyle>
			<LineStyle>
				<color>ff2dc0fb</color>
				<width>4</width>
			</LineStyle>
			<PolyStyle>
				<color>40ffffff</color>
			</PolyStyle>
			<BalloonStyle>
				<displayMode>hide</displayMode>
			</BalloonStyle>
		</Style>
	</gx:CascadingStyle>
	<StyleMap id="__managed_style_04E5B8C2233F13B56D39">
		<Pair>
			<key>normal</key>
			<styleUrl>#__managed_style_04E5B8C2233F13B56D39_normal</styleUrl>
		</Pair>
		<Pair>
			<key>highlight</key>
			<styleUrl>#__managed_style_04E5B8C2233F13B56D39_highlight</styleUrl>
		</Pair>
	</StyleMap>
	<Placemark id="02F73586B03F13B56D21">
		<name>Mid-Atlantic</name>
		<LookAt>
			<longitude>-75.90522701538102</longitude>
			<latitude>38.44904434881307</latitude>
			<altitude>584.0762754380592</altitude>
			<heading>0.002138542285017834</heading>
			<tilt>0.1698223966475527</tilt>
			<gx:fovy>35</gx:fovy>
			<range>2572751.75231874</range>
			<altitudeMode>absolute</altitudeMode>
		</LookAt>
		<styleUrl>#__managed_style_04E5B8C2233F13B56D39</styleUrl>
		<Polygon>
			<outerBoundaryIs>
				<LinearRing>
					<coordinates>
						-73.97172915555898,35.86743872977085,0 -73.71729340722389,37.38637011637915,0 -70.58391201619241,39.52948003857382,0 -75.48272114839962,39.83899981499422,0 -75.67822459425413,39.81195217260264,0 -76.40015498324108,39.4973879569287,0 -77.52601733210881,38.63851132193821,0 -77.53137662005405,38.31945059354322,0 -76.81677838102375,37.87191040299764,0 -76.81761446366781,37.56414569266239,0 -77.17462847988051,37.29618285277283,0 -77.2404742388058,35.16679528098338,0 -78.68579075042842,33.9750153991418,0 -76.32463796456003,31.67036726071845,0 -73.97172915555898,35.86743872977085,0 
					</coordinates>
				</LinearRing>
			</outerBoundaryIs>
		</Polygon>
	</Placemark>
</Document>
</kml>
